#cP2017 12 12  0  0  0.00000000      96 ORBIT IGS14 HLM  IGS
## 1979 172800.00000000   900.00000000 58099 0.0000000000000
+   32   G01G02G03G04G05G06G07G08G09G10G11G12G13G14G15G16G17
+        G18G19G20G21G22G23G24G25G26G27G28G29G30G31G32  0  0
+          0  0  0  0  0  0  0  0  0  0  0  0  0  0  0  0  0
+          0  0  0  0  0  0  0  0  0  0  0  0  0  0  0  0  0
+          0  0  0  0  0  0  0  0  0  0  0  0  0  0  0  0  0
++         2  2  2  0  2  2  2  2  2  2  2  2  2  2  2  2  2
++         2  2  2  2  2  2  2  2  2  2  2  2  3  2  2  0  0
++         0  0  0  0  0  0  0  0  0  0  0  0  0  0  0  0  0
++         0  0  0  0  0  0  0  0  0  0  0  0  0  0  0  0  0
++         0  0  0  0  0  0  0  0  0  0  0  0  0  0  0  0  0
%c G  cc GPS ccc cccc cccc cccc cccc ccccc ccccc ccccc ccccc
%c cc cc ccc ccc cccc cccc cccc cccc ccccc ccccc ccccc ccccc
%f  1.2500000  1.025000000  0.00000000000  0.000000000000000
%f  0.0000000  0.000000000  0.00000000000  0.000000000000000
%i    0    0    0    0      0      0      0      0         0
%i    0    0    0    0      0      0      0      0         0
/* RAPID ORBIT COMBINATION FROM WEIGHTED AVERAGE OF:        
/* cod emr esa gfz jpl ngs sio usn whu                      
/* REFERENCED TO IGS TIME (IGST) AND TO WEIGHTED MEAN POLE: 
/* PCV:IGS14_1977 OL/AL:FES2004  NONE     Y  ORB:CMB CLK:CMB
*  2017 12 12  2 15  0.00000000
PG01    731.166744 -15939.430876 -21320.976941    -16.211584  3  6  4 139       
PG02 -20643.326486  15025.033483   7263.437299    257.733308  9  8  5 116       
PG03  -9029.954984 -20328.768022 -14568.191089    -28.462486  8  9  7 123       
PG04  21274.102417   4731.968740  15141.684656 999999.999999
PG05 -10997.583324  11001.019849  21435.210040    -20.046970  6  7  4 125       
PG06 -25310.125689   7012.826024  -3981.303996    412.939437  5  6  4 121       
PG07 -15684.550211  -8989.460241  19803.703823    267.211299  5  5  5  86       
PG08   5626.617385 -25742.677038   2839.425742    -83.772193  6  5  7  99       
PG09  -9523.289754 -18149.861608  16853.041669    482.138365  6  5  4 131       
PG10  22786.105745   8428.077309 -10874.911780    127.818037  7  5  6  92       
PG11   2850.280729 -21125.700709 -16483.365510   -730.236152  5  4  4 129       
PG12   5406.973593  19977.594271 -16927.183232    360.801912  6  7  5  95       
PG13 -12239.472130  21878.207661   8679.781678    -94.687127  9  9  6 125       
PG14  15806.046401  -8102.012689 -19417.983395    -90.390501  6  6  4 123       
PG15  -2604.065089  26196.405021    873.741420   -357.382454  9  9  5 114       
PG16  10744.400783  -9858.939732  22073.983048     35.550578  7  7  5 112       
PG17 -14427.818059  -2190.666136 -21810.932496   -138.746180  8  6  4 122       
PG18  21403.773562  15881.907943    523.130954    633.408424  6  6  8  26       
PG19 -15924.980846   6824.813291 -20471.518110   -470.446001  8  8  5 106       
PG20   7005.475667  19365.467414  16642.832884    495.319005  2  8  4 113       
PG21  17340.520968   7747.618658  19382.668002   -453.439873  6  4  7 116       
PG22  -1867.210000 -18630.649182 -18591.315854   -219.314377  9  5  6 102       
PG23  -2638.280624 -24904.981211   8427.772270   -218.955242  9  7  3 122       
PG24  -3515.044693  17250.242483 -19908.255284    -43.335639  6  5  7 121       
PG25  16686.198823  19631.368792  -7084.500798   -504.273456  5  4  6 104       
PG26  18932.798670  -1872.830598  18583.913239   -328.641387  4  6  3  95       
PG27  12211.739211 -19004.779890  13721.054782    355.289262  5  3  6  99       
PG28 -21390.783358 -13349.878924  -7661.763242    670.238266  5  9  8  88       
PG29   4946.190588  21918.417650  14164.034350    526.442883  5  6  6 121       
PG30 -22807.008827  -2747.820246  13460.587524    121.452549  6 10 11 157       
PG31  25674.156944  -7142.200601  -2656.379259    156.107783  7  8  6 120       
PG32  15396.920740   -135.198290 -21614.971305   -529.287450  6  7  6 108       
*  2017 12 12  2 30  0.00000000
PG01   2941.150996 -16784.356201 -20434.271548    -16.213893  4  6  4 135       
PG02 -21329.930349  15034.219377   4522.596049    257.724090  9  8  5 104       
PG03  -7503.114040 -19404.150853 -16557.943214    -28.457082  8  9  7  91       
PG04  22461.495200   5855.641727  12928.852737 999999.999999
PG05 -12970.399280   9539.152505  21049.353669    -20.046077  6  8  5 129       
PG06 -24832.336080   6563.560253  -6765.441923    412.940355  4  6  4 109       
PG07 -13603.231901  -9910.164352  20846.752925    267.206392  5  4  4  85       
PG08   5811.099310 -25238.559553   5662.063419    -83.773398  6  5  7 112       
PG09  -9138.180661 -19945.370059  14930.730547    482.142199  6  5  5 133       
PG10  23534.088898   9261.428157  -8321.336506    127.824113  6  4  6  88       
PG11   4208.301060 -22188.296938 -14640.445533   -730.237365  5  4  4  62       
PG12   3827.398662  18757.354131 -18664.375758    360.800254  7  8  6  97       
PG13 -12170.901302  20708.206725  11234.307190    -94.687455  9  9  6 134       
PG14  15454.775116  -5782.356475 -20499.712117    -90.391055  7  6  5 103       
PG15  -2968.517315  25895.409809   3669.831140   -357.382142  9  9  6 115       
PG16  12639.093313  -8183.873267  21790.785727     35.550055  7  8  5 111       
PG17 -13994.978481  -4720.782640 -21706.521034   -138.743992  7  6  5  98       
PG18  21086.902180  16075.483908   3286.994187    633.408728  4  5  7  84       
PG19 -15478.148678   4537.488924 -21421.142729   -470.444087  8  8  5  84       
PG20   5161.213996  18493.347266  18216.598735    495.319980  2  8  5 107       
PG21  15463.085804   8772.361168  20543.514515   -453.436492  4  4  7 114       
PG22     88.718082 -17504.601788 -19732.071255   -219.326250  9  4  6 128       
PG23  -2240.472454 -25658.415980   5741.197801   -218.955339 10  7  3 121       
PG24  -5566.492250  18059.952443 -18652.725053    -43.335896  6  5  7 133       
PG25  15832.028712  19210.072993  -9738.438879   -504.279068  5  4  6  96       
PG26  20490.306725   -563.017747  16955.661905   -328.628462  4  6  4  89       
PG27  12184.668884 -17289.299769  15860.077054    355.291878  5  3  6 104       
PG28 -21859.328200 -14014.380772  -4873.316245    670.241202  4  8  8 112       
PG29   4530.148999  23351.543005  11822.105843    526.438381  6  6  6 117       
PG30 -21322.128384  -3512.248700  15542.802139    121.449884  6 10 10 154       
PG31  25317.472423  -6779.363096  -5447.442005    156.105320  7  8  7 130       
PG32  15127.828233   2333.676331 -21684.917285   -529.289184  7  7  6  72       
*  2017 12 12  2 45  0.00000000
PG01   4998.023337 -17694.268877 -19197.799121    -16.216202  4  6  4 130       
PG02 -21744.509220  14919.192515   1703.302574    257.715203  9  8  5 128       
PG03  -5755.886988 -18444.956746 -18263.680434    -28.451672  7  9  7  82       
PG04  23492.072480   6757.971596  10493.735249 999999.999999
PG05 -14957.308983   8213.117438  20298.874312    -20.045013  7  8  5 136       
PG06 -24103.348477   5950.126626  -9433.148668    412.941256  4  6  4 117       
PG07 -11483.172964 -10983.282659  21540.314260    267.201603  6  4  3  92       
PG08   6006.119219 -24430.598862   8386.710214    -83.775196  6  4  6 114       
PG09  -8856.420221 -21525.980929  12750.818902    482.146030  6  6  5 124       
PG10  24076.878696   9891.354228  -5625.570967    127.830213  6  4  6 105       
PG11   5381.968879 -23145.274802 -12555.376391   -730.238713  6  5  4 102       
PG12   2038.277526  17522.386061 -20086.689026    360.798693  7  8  6  94       
PG13 -12115.982898  19260.626732  13594.539297    -94.687516  8  8  6 138       
PG14  15208.854180  -3345.911866 -21218.813650    -90.391312  8  6  5 105       
PG15  -3352.315826  25296.560434   6401.016551   -357.382202  9  9  6 124       
PG16  14579.287770  -6653.875088  21129.531691     35.549740  7  8  5 104       
PG17 -13704.260848  -7234.590277 -21215.473825   -138.741499  7  6  5 116       
PG18  20519.669034  16124.215814   5995.331739    633.408975  3  5  7  85       
PG19 -15146.489113   2142.556381 -22012.543006   -470.442114  8  8  4  93       
PG20   3135.446480  17633.137960  19473.562841    495.320806  1  8  5 129       
PG21  13547.480522   9942.916007  21374.005086   -453.432835  4  5  6 136       
PG22   2189.237616 -16412.597581 -20526.204153   -219.337669  8  4  6  98       
PG23  -1892.839667 -26120.377587   2953.901030   -218.955646 10  8  4 121       
PG24  -7437.864515  18893.778140 -17075.976562    -43.336944  5  5  7 129       
PG25  14715.539648  18676.190704 -12227.950755   -504.284668  5  4  6 105       
PG26  21944.222114    556.111172  15036.991317   -328.615570  4  6  4 100       
PG27  12237.490969 -15347.826097  17722.354226    355.294482  5  4  5  98       
PG28 -22111.233185 -14446.487464  -1999.582898    670.244224  4  7  8  87       
PG29   4227.208312  24530.123878   9276.772373    526.433757  6  6  7 127       
PG30 -19675.054393  -4437.505537  17359.283732    121.447232  6 10 10 150       
PG31  24701.034620  -6267.631702  -8146.910148    156.103112  7  8  7 125       
PG32  14987.004663   4799.256297 -21381.017763   -529.290910  7  7  6 102       
EOF
